{
"type": "FeatureCollection",
"name": "ahmedabad_boundary",
"crs": { "type": "name", "properties": { "name": "urn:ogc:def:crs:OGC:1.3:CRS84" } },
"features": [
{ "type": "Feature", "properties": { "name": "Ahmedabad" }, "geometry": { "type": "Polygon", "coordinates": [ [ [ 72.448851235663824, 23.046836354913939 ], [ 72.448852836385555, 23.04684051957565 ], [ 72.447944248434482, 23.047139602211104 ], [ 72.447875051593627, 23.047198003591689 ], [ 72.447625149143732, 23.047405301877561 ], [ 72.447444087351755, 23.047552915238604 ], [ 72.447427036697718, 23.04765923805639 ], [ 72.447426081039978, 23.047673941756671 ], [ 72.447443046480373, 23.048368933408074 ], [ 72.447433269250894, 23.048369137808233 ], [ 72.447487353987583, 23.049408132412712 ], [ 72.447340808763911, 23.051461765794706 ], [ 72.447266298547959, 23.052019613324102 ], [ 72.447271929064456, 23.052086064156704 ], [ 72.447394955982787, 23.052777759873159 ], [ 72.447508856936153, 23.053248121029245 ], [ 72.447566520670421, 23.053485853651505 ], [ 72.447664120949739, 23.053912259587278 ], [ 72.447670285223225, 23.053940891563197 ], [ 72.447749862082929, 23.054361902678792 ], [ 72.447854493970979, 23.054870226803271 ], [ 72.448021534652199, 23.055818345466033 ], [ 72.448073262333708, 23.05617075905537 ], [ 72.448115164873101, 23.056447964037808 ], [ 72.448145833747418, 23.056603598152588 ], [ 72.448347510744838, 23.057886550000482 ], [ 72.448364320958646, 23.058029309722933 ], [ 72.448382634315507, 23.058197682694296 ], [ 72.448483786317269, 23.058911115418066 ], [ 72.448579336748026, 23.05942986480607 ], [ 72.44860624632264, 23.059569339746929 ], [ 72.448650200769919, 23.059787259534811 ], [ 72.448693261101667, 23.059988088483173 ], [ 72.448695844716156, 23.059999460878608 ], [ 72.448819229720044, 23.060432212029149 ], [ 72.449328350087058, 23.060690112937316 ], [ 72.450027750306347, 23.061002588204996 ], [ 72.45170418280911, 23.061955150777695 ], [ 72.453268438254156, 23.063059091548951 ], [ 72.4547046104408, 23.064303187774478 ], [ 72.455998094090901, 23.065674791390649 ], [ 72.457135733385428, 23.067159957489253 ], [ 72.458105955825815, 23.068743585987065 ], [ 72.458898890055593, 23.070409575055443 ], [ 72.459506466438938, 23.07214098475481 ], [ 72.459922499365177, 23.07392020921457 ], [ 72.460142750433022, 23.075729155611032 ], [ 72.460164971860067, 23.077549428126002 ], [ 72.459988929664206, 23.079362515016424 ], [ 72.459616406367758, 23.081149976893361 ], [ 72.459608622501577, 23.081179287400101 ], [ 72.459494126877402, 23.081963815113593 ], [ 72.4595038588959, 23.082140583843653 ], [ 72.459603424376766, 23.082937468286879 ], [ 72.459623449801342, 23.083176096064243 ], [ 72.459653636529765, 23.083502465632797 ], [ 72.459718530687311, 23.083907950535409 ], [ 72.459796061492995, 23.08391147501834 ], [ 72.46184083036583, 23.08392869024922 ], [ 72.463995396847295, 23.084169802308438 ], [ 72.466107707632773, 23.084630773526328 ], [ 72.466178720196325, 23.084650184664316 ], [ 72.467958396105786, 23.085224466688814 ], [ 72.469669895581021, 23.085954917745987 ], [ 72.471297251880898, 23.086834724497603 ], [ 72.472825282258242, 23.087855680153542 ], [ 72.474239729530396, 23.0890082609383 ], [ 72.475527395060809, 23.090281714841566 ], [ 72.476676261913155, 23.091664161829321 ], [ 72.477675607028743, 23.093142704584757 ], [ 72.478516101379356, 23.094703548749933 ], [ 72.478681755188774, 23.095052450631577 ], [ 72.478767561388423, 23.095190267285599 ], [ 72.478868822882333, 23.095318408522964 ], [ 72.478984564133015, 23.095435688953103 ], [ 72.47916499078508, 23.095581408006847 ], [ 72.479640788507609, 23.095882784087635 ], [ 72.480872938972368, 23.096629156539947 ], [ 72.481486897071903, 23.097066135689619 ], [ 72.481708646150395, 23.09720489318401 ], [ 72.482395363374835, 23.097399629096621 ], [ 72.483040604649347, 23.097547701005773 ], [ 72.484855799190825, 23.098145341421123 ], [ 72.486598455677182, 23.098905647763065 ], [ 72.488251589198526, 23.099821210871571 ], [ 72.489799086296244, 23.100883108257651 ], [ 72.491225861939327, 23.102080990959525 ], [ 72.492518006529721, 23.103403184300159 ], [ 72.493662921505802, 23.104836801568954 ], [ 72.49464944222207, 23.106367869524565 ], [ 72.49546794690481, 23.107981464500359 ], [ 72.496110450617536, 23.109661857790261 ], [ 72.496570683313351, 23.111392668901626 ], [ 72.496844151205849, 23.113157025184595 ], [ 72.496854698821338, 23.113261617862658 ], [ 72.49692303797751, 23.11359316063831 ], [ 72.497031281504135, 23.113934136597617 ], [ 72.497160384110956, 23.114117987022542 ], [ 72.497541594674573, 23.1146688240676 ], [ 72.497583528196969, 23.114716751884849 ], [ 72.498209650169059, 23.115324319375269 ], [ 72.49822860394741, 23.115343848330227 ], [ 72.498493549556144, 23.115579943347981 ], [ 72.498827906708357, 23.11582174502275 ], [ 72.499776454855876, 23.116553607033175 ], [ 72.500013173720347, 23.116748322828272 ], [ 72.501009731111708, 23.117497191189724 ], [ 72.501276581477043, 23.117722844529073 ], [ 72.501480162541142, 23.117862523526149 ], [ 72.501921423958663, 23.118111744753183 ], [ 72.502683774850695, 23.118565116555512 ], [ 72.502768431415049, 23.118618070963958 ], [ 72.502826138389494, 23.118640127847641 ], [ 72.504631934832005, 23.119236421695732 ], [ 72.506475731011676, 23.120055472861111 ], [ 72.508216751519569, 23.121048488128299 ], [ 72.509835877656826, 23.122204565015057 ], [ 72.511315327694817, 23.1235110102498 ], [ 72.512638852111166, 23.12495347900277 ], [ 72.513791912079753, 23.126516132257944 ], [ 72.513998290890171, 23.126829962142665 ], [ 72.514113574336349, 23.1270093505949 ], [ 72.514121095764068, 23.127019633932779 ], [ 72.514198404738792, 23.12713955942338 ], [ 72.514280454442471, 23.127259031503225 ], [ 72.514385296141015, 23.127418457292087 ], [ 72.514380084434222, 23.127421389011381 ], [ 72.514879039932751, 23.128195384328333 ], [ 72.515357306730806, 23.128871129104326 ], [ 72.516348314714293, 23.130437933210846 ], [ 72.51716420121565, 23.132088857640756 ], [ 72.517796711174071, 23.133807212435023 ], [ 72.518239442633075, 23.135575625234285 ], [ 72.518487911741545, 23.137376216861007 ], [ 72.518512911284432, 23.137677315155567 ], [ 72.518816359502111, 23.137790577111108 ], [ 72.519970866784121, 23.138158618854323 ], [ 72.521719612581563, 23.138901429245234 ], [ 72.523380794936088, 23.139799854541302 ], [ 72.524351496223744, 23.140451351125272 ], [ 72.524672986391991, 23.140648159270604 ], [ 72.524688066377934, 23.14065564034517 ], [ 72.524843152417304, 23.140716608657019 ], [ 72.525106874187088, 23.140645373501304 ], [ 72.525809582225136, 23.140468645882649 ], [ 72.527061847126362, 23.140176784399618 ], [ 72.527102511060235, 23.140165375917885 ], [ 72.527479851821127, 23.140041447645221 ], [ 72.529179814704833, 23.139590032875315 ], [ 72.529561372320913, 23.139475068910382 ], [ 72.530303792773765, 23.13909201132439 ], [ 72.531259253675415, 23.138630542286204 ], [ 72.531486369655155, 23.138528127003728 ], [ 72.53175506287117, 23.138336550738849 ], [ 72.532631091456423, 23.137639903290768 ], [ 72.534166389627444, 23.136639151643706 ], [ 72.535798566224756, 23.135779482625274 ], [ 72.537512512519086, 23.135068853763435 ], [ 72.539292363655534, 23.134513843028607 ], [ 72.541121645362253, 23.134119587998601 ], [ 72.542983426272045, 23.133889738341242 ], [ 72.544860474454154, 23.133826422052749 ], [ 72.546735416716103, 23.133930225763237 ], [ 72.548590899209614, 23.134200189291409 ], [ 72.550409747863213, 23.13463381449942 ], [ 72.552175127165256, 23.135227088367088 ], [ 72.553870695835784, 23.135974520074083 ], [ 72.555480757953831, 23.136869191749337 ], [ 72.556990408147357, 23.137902822421271 ], [ 72.557399397801021, 23.138243739535088 ], [ 72.557887455947125, 23.138609672939722 ], [ 72.558339254427651, 23.138642624526 ], [ 72.558725253902935, 23.138642328380818 ], [ 72.559206127880657, 23.138603335209144 ], [ 72.559266286818001, 23.138591972363407 ], [ 72.560266587743968, 23.138282150588878 ], [ 72.561216609878599, 23.137915458746356 ], [ 72.562040162587309, 23.137554931420635 ], [ 72.562227909756871, 23.137462578547961 ], [ 72.562606399774211, 23.137255502231241 ], [ 72.562625044901054, 23.137237516152378 ], [ 72.563958671949194, 23.136066747827265 ], [ 72.564688178938113, 23.135484198403287 ], [ 72.564944119562611, 23.135190858130162 ], [ 72.565056417364957, 23.135049903722336 ], [ 72.56612046532311, 23.133714267648095 ], [ 72.566723424170817, 23.132860147450131 ], [ 72.566751096478754, 23.13281563697787 ], [ 72.566956862883032, 23.132446511348078 ], [ 72.567113304733866, 23.132088317786671 ], [ 72.567384592718398, 23.131239185249513 ], [ 72.567479605833128, 23.130875026381549 ], [ 72.567508525695118, 23.130714843176133 ], [ 72.567669192844491, 23.130030510616482 ], [ 72.567782041326751, 23.129013874923043 ], [ 72.567816453049076, 23.128202182340818 ], [ 72.567851694039362, 23.127615216766621 ], [ 72.567911061466091, 23.126851306955089 ], [ 72.567898190196928, 23.126407998551958 ], [ 72.5678499717378, 23.125823469643969 ], [ 72.56783383687565, 23.125627625066027 ], [ 72.567792147122347, 23.125396563641853 ], [ 72.567571878328508, 23.123663159337664 ], [ 72.567533620429288, 23.121918182767246 ], [ 72.567677723939539, 23.120177943679035 ], [ 72.568002835053179, 23.118458706927253 ], [ 72.568505908553533, 23.116776540485706 ], [ 72.569182236515928, 23.115147165323055 ], [ 72.570025492525602, 23.113585808540609 ], [ 72.571027790989248, 23.112107061142158 ], [ 72.572179760979608, 23.110724741761807 ], [ 72.573470633917424, 23.109451767619284 ], [ 72.574888344268118, 23.108300033904726 ], [ 72.576419642310057, 23.107280302715548 ], [ 72.578050217921003, 23.106402102579302 ], [ 72.579764834227646, 23.105673639497116 ], [ 72.581547469873229, 23.10510172033543 ], [ 72.583381468578835, 23.104691689278521 ], [ 72.585249694607754, 23.104447377933159 ], [ 72.587134692687883, 23.104371069549355 ], [ 72.589018850906342, 23.104463477690718 ], [ 72.590884565063675, 23.104723739553108 ], [ 72.592714402960993, 23.105149423994529 ], [ 72.594491267094071, 23.105736554202576 ], [ 72.59462155135148, 23.105786295597067 ], [ 72.596256188129999, 23.106493880130518 ], [ 72.59781319440566, 23.107338103573536 ], [ 72.599279258005311, 23.10831174927473 ], [ 72.600641843366333, 23.109406493954697 ], [ 72.600922143290944, 23.109677590503743 ], [ 72.601487177342435, 23.110173672755575 ], [ 72.601839901202126, 23.110428573583725 ], [ 72.603409657603308, 23.1116932737383 ], [ 72.604824889387956, 23.113105420426656 ], [ 72.606069494639556, 23.11464895263218 ], [ 72.606596592565538, 23.115473244530811 ], [ 72.60690829909629, 23.115916799582259 ], [ 72.607362496729337, 23.115932901653341 ], [ 72.607401512696228, 23.115932558894404 ], [ 72.608480786170617, 23.115867593163532 ], [ 72.608658336806599, 23.115847711700706 ], [ 72.609644771935976, 23.115689898918468 ], [ 72.612163800711869, 23.115441196048877 ], [ 72.612420721084646, 23.115431351315795 ], [ 72.612485335732742, 23.115427737207792 ], [ 72.613843305748617, 23.115292722720334 ], [ 72.613844191817904, 23.115300347087498 ], [ 72.61520318388682, 23.115137904971675 ], [ 72.616750265318899, 23.115067522129948 ], [ 72.617094290803365, 23.115064511458609 ], [ 72.61746492447547, 23.115061221093004 ], [ 72.617822668038087, 23.115058124512082 ], [ 72.618142127113629, 23.115055273349718 ], [ 72.61859058910332, 23.115031375318647 ], [ 72.618731788746715, 23.114280257052194 ], [ 72.619155919884463, 23.112539053111622 ], [ 72.619763842415622, 23.110845093668726 ], [ 72.620549608649952, 23.109214933533288 ], [ 72.621505533693167, 23.107664503501244 ], [ 72.622622270738091, 23.106208954757328 ], [ 72.623888902550135, 23.104862510909697 ], [ 72.625293048247926, 23.103638329097567 ], [ 72.626820984332269, 23.102548371524431 ], [ 72.6284577787806, 23.101603288667043 ], [ 72.630187436897344, 23.100812315296857 ], [ 72.631993057498917, 23.100183180325157 ], [ 72.633856997912645, 23.099722031349142 ], [ 72.635761046184442, 23.099433374632806 ], [ 72.637686598821588, 23.099320031106579 ], [ 72.639614842343377, 23.099383108814003 ], [ 72.641526936876488, 23.099621992074169 ], [ 72.643404200011801, 23.100034347465947 ], [ 72.645228289136952, 23.100616146576918 ], [ 72.646273011513671, 23.101060451745859 ], [ 72.646631036709735, 23.101193435123776 ], [ 72.647106609938206, 23.101187990355246 ], [ 72.64759412450951, 23.101160150663212 ], [ 72.647718421417082, 23.101152315285475 ], [ 72.647967142373687, 23.101135159949166 ], [ 72.648482574870513, 23.101085575931545 ], [ 72.649014581950709, 23.101003564666815 ], [ 72.649320779639325, 23.100940588043706 ], [ 72.649329191366945, 23.100938688874589 ], [ 72.649331828517688, 23.100938091911456 ], [ 72.649647524956507, 23.100858970585776 ], [ 72.649920358736395, 23.10077294036731 ], [ 72.650040837673757, 23.100724865513691 ], [ 72.650367932554573, 23.10055833505935 ], [ 72.651014824979811, 23.100134585095439 ], [ 72.652713603232485, 23.099139196603137 ], [ 72.654514064565049, 23.098310776425297 ], [ 72.656397099872549, 23.097658116930482 ], [ 72.658342724567149, 23.097188145148714 ], [ 72.659614281178136, 23.097007547844129 ], [ 72.660403434298175, 23.096866774279786 ], [ 72.66115703360353, 23.096471560047544 ], [ 72.66264108218229, 23.095768973816192 ], [ 72.664184520978822, 23.09518610396055 ], [ 72.665838665518095, 23.09463641629484 ], [ 72.665840859212921, 23.094642065738281 ], [ 72.666881560518192, 23.094290243353029 ], [ 72.66765485955986, 23.09406592625044 ], [ 72.667707032616136, 23.094047840627987 ], [ 72.669368562529584, 23.093655335242826 ], [ 72.66936672725474, 23.093648195079801 ], [ 72.670513184261395, 23.093395994404727 ], [ 72.672169198212586, 23.093004212524328 ], [ 72.674429876230661, 23.092723482871765 ], [ 72.674579779800283, 23.092713066804908 ], [ 72.674940562804125, 23.092619878135217 ], [ 72.675254968171998, 23.092507844955215 ], [ 72.675768616960866, 23.092272534780889 ], [ 72.675805234047544, 23.092255129762421 ], [ 72.676498073623918, 23.091923439381759 ], [ 72.678337799842424, 23.091151572504391 ], [ 72.679001127224723, 23.090910726824188 ], [ 72.679448493425639, 23.090720476336038 ], [ 72.679863057346694, 23.090562028133863 ], [ 72.679990337771926, 23.090444953758748 ], [ 72.680535939036162, 23.089875333825464 ], [ 72.68095337205645, 23.089468688693309 ], [ 72.682524277334252, 23.088098767062256 ], [ 72.684249096145464, 23.0868977307974 ], [ 72.686106724906963, 23.085880273151236 ], [ 72.686144845713812, 23.085861947993198 ], [ 72.686286038077554, 23.085667611707116 ], [ 72.687505150652143, 23.084164867678119 ], [ 72.688886446148302, 23.082787470007844 ], [ 72.690414963981652, 23.081550333137539 ], [ 72.692074150833164, 23.080466852527849 ], [ 72.693846039853227, 23.079548759740355 ], [ 72.695711445100471, 23.078805995526047 ], [ 72.697650169116741, 23.078246602288644 ], [ 72.699641221399673, 23.077876637081864 ], [ 72.699729057032755, 23.077864675097185 ], [ 72.699823389466999, 23.077589333880436 ], [ 72.700116348050315, 23.076798309200385 ], [ 72.700141763159053, 23.076734540127664 ], [ 72.700167083897696, 23.076671371111669 ], [ 72.700359746515559, 23.076193459915267 ], [ 72.70097912072525, 23.074830315468102 ], [ 72.700999908639531, 23.074789346489897 ], [ 72.701062024092067, 23.074634644808999 ], [ 72.70113033235971, 23.074407377182844 ], [ 72.701331608620947, 23.073596062364452 ], [ 72.701366339640145, 23.073384191321107 ], [ 72.700494924349343, 23.073104383438647 ], [ 72.699565283464594, 23.072781120999437 ], [ 72.699082657353699, 23.072600197078671 ], [ 72.697822149606665, 23.072150471484747 ], [ 72.696823131528291, 23.071672612852865 ], [ 72.69631917037141, 23.07145679783277 ], [ 72.695498205246253, 23.071192133399482 ], [ 72.693719093833806, 23.070526079699739 ], [ 72.692019327518551, 23.069701512483483 ], [ 72.690415354307262, 23.068726412113222 ], [ 72.688922694123718, 23.067610215497716 ], [ 72.687555788571203, 23.06636372466572 ], [ 72.68632786118259, 23.064999002129749 ], [ 72.685250789510945, 23.063529254056778 ], [ 72.684334990297714, 23.06196870238162 ], [ 72.683589318825909, 23.060332447104866 ], [ 72.683020983427426, 23.058636320111884 ], [ 72.682635475964361, 23.056896731930841 ], [ 72.682436518948606, 23.05513051291539 ], [ 72.682365339205361, 23.053926763093305 ], [ 72.682362533323499, 23.05390268057279 ], [ 72.682027712144944, 23.052136695509279 ], [ 72.68204335618789, 23.052134155535931 ], [ 72.681888494362141, 23.051385748614372 ], [ 72.681715144341268, 23.049560542058313 ], [ 72.681742589766657, 23.047728475031111 ], [ 72.681885487387461, 23.046587522252526 ], [ 72.681905571739676, 23.046268786993895 ], [ 72.681896162578354, 23.046093576899572 ], [ 72.681899484320638, 23.044241393438448 ], [ 72.682107834973607, 23.042399270954601 ], [ 72.682519013637048, 23.040586595904287 ], [ 72.683128685364565, 23.038822444113869 ], [ 72.683930427097707, 23.037125380102204 ], [ 72.684915795535602, 23.035513261809964 ], [ 72.686074416214495, 23.034003052786293 ], [ 72.686597915996217, 23.033389918654393 ], [ 72.686633256526335, 23.033193239641133 ], [ 72.686702666232449, 23.03211595936639 ], [ 72.686784751527682, 23.031218949034784 ], [ 72.686824808965028, 23.03088149299834 ], [ 72.686878165161502, 23.029975142608084 ], [ 72.686867403967256, 23.029729966596147 ], [ 72.686820496481985, 23.029371963239566 ], [ 72.686678253329731, 23.02855988236913 ], [ 72.686598983677271, 23.028163556198212 ], [ 72.686596226838276, 23.028151307418071 ], [ 72.686219907321245, 23.025528997943237 ], [ 72.686150978074878, 23.024443857494383 ], [ 72.686174012202002, 23.024442603983683 ], [ 72.686144204012066, 23.024134979987689 ], [ 72.686018087963149, 23.023123842514234 ], [ 72.685921865130737, 23.022094683493204 ], [ 72.68589814886522, 23.021714744949328 ], [ 72.685884151958049, 23.021602715864436 ], [ 72.685758388387683, 23.019864389253687 ], [ 72.685814223628952, 23.018122935710235 ], [ 72.686051130811222, 23.016394570966003 ], [ 72.686466897241417, 23.014695388281201 ], [ 72.687057645253986, 23.013041208633357 ], [ 72.687817868543746, 23.011447433461818 ], [ 72.688740483634987, 23.009928901336458 ], [ 72.689816896000465, 23.008499749881757 ], [ 72.691037080208602, 23.007173284238583 ], [ 72.692389673348615, 23.005961853284084 ], [ 72.693862080860711, 23.004876734758195 ], [ 72.694447482867218, 23.004486488296003 ], [ 72.694575475321997, 23.004328291040068 ], [ 72.694679568558087, 23.004168142691668 ], [ 72.694385948118338, 23.003631658415944 ], [ 72.694000957907164, 23.002880820789326 ], [ 72.693988531472726, 23.002860641935786 ], [ 72.693490763501714, 23.002213622199985 ], [ 72.693334716799683, 23.002030958743262 ], [ 72.692276045579874, 23.000495895180375 ], [ 72.691389838497159, 22.998869898853737 ], [ 72.690685108207163, 22.997169518265792 ], [ 72.690169019584232, 22.99541205825691 ], [ 72.689976924758327, 22.994597624653895 ], [ 72.689970486356401, 22.994583812346768 ], [ 72.689863278767291, 22.99434928652936 ], [ 72.689510852008354, 22.993562910685988 ], [ 72.689308025327108, 22.993370193086903 ], [ 72.689083324525214, 22.993193680361031 ], [ 72.688710269652901, 22.992952887831809 ], [ 72.686887787940805, 22.991620472298951 ], [ 72.686062741993041, 22.990939636749683 ], [ 72.685878723130486, 22.990815311605616 ], [ 72.685509357539104, 22.990611802666123 ], [ 72.68448376987584, 22.990100888105122 ], [ 72.682855528418955, 22.989081727811961 ], [ 72.681346390305976, 22.98791598755491 ], [ 72.679971686526329, 22.986615512933419 ], [ 72.678745380842031, 22.985193518144477 ], [ 72.677679927975618, 22.983664451602731 ], [ 72.676786147190924, 22.98204384903206 ], [ 72.676073112546987, 22.980348175526522 ], [ 72.675548060933295, 22.978594658189884 ], [ 72.675216318812133, 22.9768011110583 ], [ 72.675120125046249, 22.975508261075102 ], [ 72.675086729094261, 22.975244689783114 ], [ 72.674996459232148, 22.974986974369266 ], [ 72.674510125955436, 22.973797493648078 ], [ 72.67400465446137, 22.972049620915197 ], [ 72.673690677746478, 22.970263676632509 ], [ 72.673571341984498, 22.968457600510952 ], [ 72.673647838040452, 22.966649533756655 ], [ 72.673919389822174, 22.964857636857168 ], [ 72.674383262385163, 22.963099907202665 ], [ 72.675034789696539, 22.961393998372525 ], [ 72.675867421767592, 22.959757042899835 ], [ 72.676872790671084, 22.958205480290562 ], [ 72.678040794771064, 22.956754892020527 ], [ 72.679359700312304, 22.955419845162353 ], [ 72.680816259343672, 22.954213746207838 ], [ 72.68145305534749, 22.953737397973804 ], [ 72.681513144727191, 22.953436904489006 ], [ 72.681543010931875, 22.953083312038451 ], [ 72.681348725540829, 22.952374850985066 ], [ 72.681328286158575, 22.952309763824612 ], [ 72.681298833258083, 22.952208398089109 ], [ 72.681168227284516, 22.951827241837488 ], [ 72.68101233493384, 22.951482048738672 ], [ 72.680461663333546, 22.950108623699073 ], [ 72.680033055520326, 22.948698370824197 ], [ 72.679935801951373, 22.948320149778159 ], [ 72.679602825124263, 22.946700024566614 ], [ 72.679430872607298, 22.945058518555246 ], [ 72.679421373328296, 22.943409328948185 ], [ 72.679574400648391, 22.941766216566304 ], [ 72.679888671946415, 22.940142891038697 ], [ 72.680361559511951, 22.938552896437205 ], [ 72.680989112649485, 22.9370094983075 ], [ 72.681291748555495, 22.936357194507696 ], [ 72.681291517239899, 22.936255683511074 ], [ 72.681250448187171, 22.935932111720266 ], [ 72.681124664817247, 22.934325964575628 ], [ 72.681153900074577, 22.932715825164262 ], [ 72.681192463162134, 22.932135083730724 ], [ 72.681187430825503, 22.931994923356584 ], [ 72.680781349660407, 22.931996402441158 ], [ 72.679733347400287, 22.932046513330818 ], [ 72.677837836667948, 22.931966017388067 ], [ 72.675959765038115, 22.931715174389353 ], [ 72.674116936315727, 22.93129636287523 ], [ 72.672326819699919, 22.930713553648047 ], [ 72.672281394429561, 22.930696420381985 ], [ 72.671368264624732, 22.93053332839575 ], [ 72.67061068885036, 22.930426078743313 ], [ 72.668384913653171, 22.929854981465176 ], [ 72.668363184920722, 22.929848098418873 ], [ 72.66616603602165, 22.92901031886295 ], [ 72.664095295991373, 22.927931121014783 ], [ 72.663274743156677, 22.927440186867045 ], [ 72.662831317010301, 22.927279687607257 ], [ 72.662028586035717, 22.927031105823524 ], [ 72.66183885765561, 22.926977421596934 ], [ 72.661342088769658, 22.926830098359133 ], [ 72.660164588723362, 22.926464727533563 ], [ 72.660164609761893, 22.926464669361788 ], [ 72.65977727977122, 22.926357177139458 ], [ 72.658053690264651, 22.925802485506907 ], [ 72.657923376547245, 22.925765918417731 ], [ 72.657327135255827, 22.92558591702582 ], [ 72.656721871010518, 22.925415884264197 ], [ 72.656564316162203, 22.925372514711317 ], [ 72.655539570370834, 22.925093090438502 ], [ 72.653189494061508, 22.924297159537172 ], [ 72.651408929324489, 22.923570914746385 ], [ 72.651207780102808, 22.923507756402863 ], [ 72.650854853164944, 22.923473012641381 ], [ 72.65056429127155, 22.92347519165509 ], [ 72.649686265694726, 22.923731953417704 ], [ 72.64965392938845, 22.923743093418352 ], [ 72.64850300803505, 22.924024565950926 ], [ 72.648155968851214, 22.924125767212029 ], [ 72.647799036075128, 22.924304954965031 ], [ 72.646012349307966, 22.925095905091215 ], [ 72.64414822483981, 22.925714823369574 ], [ 72.642225911469367, 22.926155319304275 ], [ 72.640265259427565, 22.926412844831837 ], [ 72.638286515167621, 22.926484741314312 ], [ 72.63631011204545, 22.926370266998244 ], [ 72.634356459064506, 22.926070604655507 ], [ 72.632445729879834, 22.925588849327678 ], [ 72.630597654252512, 22.924929976302391 ], [ 72.62883131412022, 22.924100789655458 ], [ 72.627869938293458, 22.923529092681893 ], [ 72.627142455109379, 22.923141851188465 ], [ 72.625754869546796, 22.922329364235932 ], [ 72.624446034578042, 22.921411589853648 ], [ 72.623225235700929, 22.920395040707611 ], [ 72.622895323097026, 22.920096113649112 ], [ 72.622421799081863, 22.919977141427104 ], [ 72.622150400995196, 22.919920587045144 ], [ 72.621818824729203, 22.919849113265165 ], [ 72.621603838966664, 22.919805136498407 ], [ 72.621028359434433, 22.919693717180429 ], [ 72.620558122725583, 22.919613772411211 ], [ 72.620354972259832, 22.919583986820541 ], [ 72.619314025602606, 22.919484099799487 ], [ 72.619282146750848, 22.919482637886066 ], [ 72.618806347007364, 22.919482591878541 ], [ 72.617923023012281, 22.919823528466349 ], [ 72.617916655438165, 22.919809372360088 ], [ 72.617471835248551, 22.920000027772414 ], [ 72.615242651723989, 22.920668471835789 ], [ 72.615171206400603, 22.920685576086989 ], [ 72.615017253133232, 22.920737460117753 ], [ 72.614420255064857, 22.921136529113046 ], [ 72.614222274201353, 22.921282417060386 ], [ 72.612751852215283, 22.922178032810447 ], [ 72.611200194229639, 22.922947121835865 ], [ 72.610714010709586, 22.923162535008355 ], [ 72.610594946479367, 22.923244559555336 ], [ 72.609963401768894, 22.923782909197616 ], [ 72.609532973824571, 22.924198528797387 ], [ 72.608053326605599, 22.925367860040872 ], [ 72.606455203313743, 22.92639474943017 ], [ 72.604754522136218, 22.92726896767838 ], [ 72.602968223891054, 22.927981806292248 ], [ 72.601114103137562, 22.928526164400051 ], [ 72.599210630739918, 22.928896619549068 ], [ 72.59727676966007, 22.929089481764041 ], [ 72.59533178582484, 22.92910283032618 ], [ 72.593395055962418, 22.92893653290497 ], [ 72.59148587433404, 22.928592246852094 ], [ 72.589623260297486, 22.928073402645634 ], [ 72.587825768630964, 22.927385169651245 ], [ 72.586924049495735, 22.926990017467588 ], [ 72.585972306488628, 22.926634964579709 ], [ 72.584519379384332, 22.925957482001255 ], [ 72.583474015733316, 22.925418250268951 ], [ 72.583383669197815, 22.925375972364559 ], [ 72.583310561499658, 22.925342266733075 ], [ 72.582909324883673, 22.925179224656894 ], [ 72.580492500523491, 22.924003763788534 ], [ 72.580120330987668, 22.923790693397549 ], [ 72.578601132910151, 22.922826157253244 ], [ 72.577187033588089, 22.921733081877257 ], [ 72.575890662013535, 22.920521231855698 ], [ 72.574723594589869, 22.919201432417815 ], [ 72.573883352435118, 22.918043351096774 ], [ 72.573556840799725, 22.917639543490111 ], [ 72.572697783006873, 22.916486418421911 ], [ 72.571993445457167, 22.915363660422059 ], [ 72.571975009054867, 22.915338106041709 ], [ 72.571822078276597, 22.915282764911151 ], [ 72.571233417051673, 22.915113217440048 ], [ 72.57031606524076, 22.914820222422073 ], [ 72.56941063501246, 22.914791477387677 ], [ 72.56830107727437, 22.914790003021668 ], [ 72.567491057477596, 22.914740452717652 ], [ 72.567312839277122, 22.914780402696096 ], [ 72.565924260927858, 22.915165723671205 ], [ 72.564109456367902, 22.915499619723526 ], [ 72.562268645090455, 22.91567256084657 ], [ 72.560472377233751, 22.915682684406207 ], [ 72.560344040441848, 22.915688708793578 ], [ 72.559947685119369, 22.916003635871203 ], [ 72.558889932783202, 22.916902598981007 ], [ 72.557323340735962, 22.917987502781127 ], [ 72.555647219173792, 22.918921458721886 ], [ 72.553878456107611, 22.919695056158453 ], [ 72.552034873956188, 22.920300500259149 ], [ 72.550135049797404, 22.920731690617057 ], [ 72.548198127977244, 22.920984282769272 ], [ 72.546243626975112, 22.921055732001285 ], [ 72.544291242482259, 22.920945318993635 ], [ 72.542360648689723, 22.920654157051882 ], [ 72.540471299800217, 22.920185180847593 ], [ 72.540201512906705, 22.920104569837001 ], [ 72.540012261098866, 22.920137027459507 ], [ 72.538706080931505, 22.920312903214356 ], [ 72.53863849532587, 22.920326004336619 ], [ 72.537952979807343, 22.920600196280162 ], [ 72.537531827989469, 22.920792428004187 ], [ 72.535690453998811, 22.921428506729203 ], [ 72.533789274058805, 22.921889548267742 ], [ 72.531847627443156, 22.922170863385158 ], [ 72.529885265408609, 22.922269591104584 ], [ 72.527922150040027, 22.922184727816784 ], [ 72.525978250944277, 22.921917137473319 ], [ 72.524073341873063, 22.921469542759823 ], [ 72.522226799355892, 22.920846497341 ], [ 72.519997303701984, 22.919973897707798 ], [ 72.519224797121907, 22.919709425447898 ], [ 72.517029925432496, 22.919056856265069 ], [ 72.516626738875445, 22.91893247125542 ], [ 72.511774497241731, 22.917380791813866 ], [ 72.51073179335603, 22.917106455439718 ], [ 72.509752935263847, 22.916902688280825 ], [ 72.508014058474103, 22.91654333289695 ], [ 72.507565651586035, 22.916471781327818 ], [ 72.507346643336064, 22.917193552565841 ], [ 72.507293334887379, 22.917409288882169 ], [ 72.506689970861345, 22.919080779278552 ], [ 72.505913507518926, 22.92068979705838 ], [ 72.50497134148155, 22.922221002906468 ], [ 72.503872449985224, 22.923659798897983 ], [ 72.502627305430934, 22.924992467759047 ], [ 72.501247775633246, 22.926206303739491 ], [ 72.499747010715438, 22.927289733845534 ], [ 72.498139317728615, 22.928232428272043 ], [ 72.49644002419123, 22.929025398977039 ], [ 72.496402857730587, 22.92904068346829 ], [ 72.496290218707088, 22.92923644426121 ], [ 72.496164456147682, 22.929520960735694 ], [ 72.496078720762469, 22.929795845895914 ], [ 72.496018300686345, 22.93008831046162 ], [ 72.495557972257615, 22.931838359428614 ], [ 72.494911629625108, 22.933537202737945 ], [ 72.494085702130107, 22.935167924305649 ], [ 72.493088408203334, 22.936714285851959 ], [ 72.491929673717095, 22.938160888690625 ], [ 72.49062103328454, 22.939493327170634 ], [ 72.48917551548449, 22.940698332237208 ], [ 72.488334337556225, 22.941269977949929 ], [ 72.487974417301189, 22.94153940431427 ], [ 72.487673680335973, 22.941871596314435 ], [ 72.487262492164149, 22.942290115371588 ], [ 72.486840337734208, 22.942758158613373 ], [ 72.486682927536336, 22.942968284267341 ], [ 72.48630735628366, 22.943758202349827 ], [ 72.486291991042748, 22.943751935972131 ], [ 72.485989866468586, 22.944396163001478 ], [ 72.485194951030223, 22.945758152526217 ], [ 72.484276932065953, 22.947052044511306 ], [ 72.48398321010427, 22.947429678360191 ], [ 72.483924694867966, 22.947522576721468 ], [ 72.483137734039943, 22.948670326112033 ], [ 72.482563257203481, 22.949442299051857 ], [ 72.482330481796097, 22.949837470760841 ], [ 72.482132285272215, 22.950219364684994 ], [ 72.481940499450218, 22.950643635238578 ], [ 72.481948497127931, 22.951103523549182 ], [ 72.482058451064233, 22.952605884923408 ], [ 72.482097380577244, 22.954262785825541 ], [ 72.481972060634121, 22.955916010040987 ], [ 72.481683541621194, 22.957551622730442 ], [ 72.481234249775838, 22.959155837025165 ], [ 72.480627966922384, 22.96071513027346 ], [ 72.480048075176356, 22.962015838106709 ], [ 72.479196806708444, 22.963679264520703 ], [ 72.478618931473278, 22.964673964868801 ], [ 72.477647005744558, 22.966168898271366 ], [ 72.476523728805589, 22.967569943593411 ], [ 72.475259594627758, 22.968864006914313 ], [ 72.473866414634713, 22.970038993898275 ], [ 72.473489044565369, 22.97030027642607 ], [ 72.47297043390833, 22.970699707404279 ], [ 72.472706413778056, 22.971562034978255 ], [ 72.472698718618119, 22.971560014896234 ], [ 72.472619524591792, 22.971869307594627 ], [ 72.471870490042392, 22.973792535925902 ], [ 72.470891376109478, 22.975624998356832 ], [ 72.470402350710046, 22.976423042003475 ], [ 72.470275105487687, 22.976790461188251 ], [ 72.470192934219369, 22.977148416787134 ], [ 72.470139946344574, 22.977590279136763 ], [ 72.470052461607054, 22.978913135767897 ], [ 72.470045681303361, 22.979901208611491 ], [ 72.470097468480787, 22.980890094868673 ], [ 72.470089623716134, 22.982777387858796 ], [ 72.469868997681928, 22.984653607057229 ], [ 72.469437993457404, 22.986498242908507 ], [ 72.468801314401134, 22.988291130329568 ], [ 72.467965913077578, 22.990012669226928 ], [ 72.466940915551902, 22.991644038866358 ], [ 72.465737521867268, 22.993167403746309 ], [ 72.46513530167438, 22.993851577933448 ], [ 72.465231616886655, 22.994275739686664 ], [ 72.46540836657735, 22.994899316741908 ], [ 72.465752468410201, 22.996355897250986 ], [ 72.465965559905115, 22.99783379903041 ], [ 72.465971955523457, 22.997898405876263 ], [ 72.466047111287196, 23.000001669211194 ], [ 72.465919666421556, 23.001410077114969 ], [ 72.4659387, 23.0014117 ], [ 72.465869441689932, 23.002107830187651 ], [ 72.465849011714056, 23.002530404077465 ], [ 72.465914466971938, 23.002949038358647 ], [ 72.465993892585473, 23.003329584247862 ], [ 72.466068592884227, 23.003655140459532 ], [ 72.466140927302831, 23.003944065581429 ], [ 72.466347574937743, 23.004630145419323 ], [ 72.466723604188005, 23.006119947049605 ], [ 72.466881650750281, 23.007123555432141 ], [ 72.4668888, 23.007122599999988 ], [ 72.466923054262423, 23.007342247626408 ], [ 72.467019371927833, 23.008061754922512 ], [ 72.467127299254699, 23.009026329521493 ], [ 72.467206652261154, 23.009370933273487 ], [ 72.467285942005205, 23.009623179556751 ], [ 72.467456499033005, 23.010053838381126 ], [ 72.467919149180602, 23.011377842834623 ], [ 72.468169744553776, 23.01220223450083 ], [ 72.468228699975086, 23.012347285251877 ], [ 72.468360123323322, 23.0125998896374 ], [ 72.468530227917213, 23.012773165744594 ], [ 72.469093508983974, 23.013257964281419 ], [ 72.469083096962137, 23.013268330326042 ], [ 72.469985969786919, 23.014062924718413 ], [ 72.471193108949919, 23.015346373589974 ], [ 72.472264346638681, 23.016729331740031 ], [ 72.473190160684197, 23.018199512212828 ], [ 72.473962320145944, 23.019743852629553 ], [ 72.47457395858828, 23.021348631184996 ], [ 72.475019635264374, 23.022999588518633 ], [ 72.47529538365832, 23.024682054379479 ], [ 72.475398746947278, 23.026381077960838 ], [ 72.475406264849269, 23.027145855224425 ], [ 72.475457482891841, 23.027947703913167 ], [ 72.475383795071792, 23.029709959214632 ], [ 72.475124663812039, 23.031457148616056 ], [ 72.47468255553612, 23.033172594982869 ], [ 72.474061683684624, 23.034839923588599 ], [ 72.473267968735783, 23.036443218477938 ], [ 72.472308981900483, 23.037967174469312 ], [ 72.471193873021406, 23.039397243342741 ], [ 72.469933283358344, 23.040719772813311 ], [ 72.468539244087694, 23.041922136959379 ], [ 72.467025061482332, 23.042992856855708 ], [ 72.465405189867681, 23.043921710255365 ], [ 72.463695093567878, 23.044699829268783 ], [ 72.461911099163601, 23.045319785103214 ], [ 72.460070239477218, 23.045775659050108 ], [ 72.458190090781414, 23.046063099039333 ], [ 72.456288604793755, 23.046179361218282 ], [ 72.45438393707029, 23.046123336157162 ], [ 72.45373547544159, 23.046074832278009 ], [ 72.452820868508127, 23.046090677496789 ], [ 72.452343648915601, 23.046093539435901 ], [ 72.451937909684816, 23.046091378069946 ], [ 72.451489776888366, 23.046162379554264 ], [ 72.450939838214993, 23.046241888641593 ], [ 72.450686505260492, 23.046275095004681 ], [ 72.450623046444093, 23.046287388785554 ], [ 72.450282319061898, 23.046376209697133 ], [ 72.449589855556866, 23.046621799102912 ], [ 72.448851235663824, 23.046836354913939 ] ] ] } }
]
}
